start=new Date('2021-12-17T00:00:00.000Z').valueOf();
sats=[{"LAUNCH_DATE":"2021-01-20","TLE_LINE1":"1 47386U 21005AP  21350.84697156 -.00000521  00000-0 -16085-4 0  9997","FILE":"3242223","EPHEMERIS_TYPE":"0","PERIOD":"95.592","CENTER_NAME":"EARTH","APOAPSIS":"548.455","RCS_SIZE":"LARGE","TIME_SYSTEM":"UTC","ECCENTRICITY":"0.00018170","GP_ID":"191861134","EPOCH":"2021-12-16T20:19:38.342784","ARG_OF_PERICENTER":"98.3417","PERIAPSIS":"545.938","OBJECT_TYPE":"PAYLOAD","MEAN_ELEMENT_THEORY":"SGP4","MEAN_MOTION_DOT":"-0.00000521","NORAD_CAT_ID":"47386","RA_OF_ASC_NODE":"122.2020","SEMIMAJOR_AXIS":"6925.331","BSTAR":"-0.00001608500000","OBJECT_NAME":"STARLINK-2106","MEAN_MOTION_DDOT":"0.0000000000000","DECAY_DATE":null,"MEAN_MOTION":"15.06405641","SITE":"AFETR","MEAN_ANOMALY":"261.7778","REV_AT_EPOCH":"5077","ELEMENT_SET_NO":"999","OBJECT_ID":"2021-005AP","CLASSIFICATION_TYPE":"U","REF_FRAME":"TEME","TLE_LINE2":"2 47386  53.0559 122.2020 0001817  98.3417 261.7778 15.06405641 50774","COUNTRY_CODE":"US","INCLINATION":"53.0559"},{"BSTAR":"0.00007678800000","OBJECT_NAME":"STARLINK-2108","MEAN_MOTION_DDOT":"0.0000000000000","MEAN_MOTION":"15.06401649","SITE":"AFETR","DECAY_DATE":null,"OBJECT_TYPE":"PAYLOAD","NORAD_CAT_ID":"47387","MEAN_ELEMENT_THEORY":"SGP4","MEAN_MOTION_DOT":"0.00000862","SEMIMAJOR_AXIS":"6925.344","RA_OF_ASC_NODE":"151.9677","OBJECT_ID":"2021-005AQ","CLASSIFICATION_TYPE":"U","TLE_LINE2":"2 47387  53.0551 151.9677 0002336  91.9352 268.1905 15.06401649 50359","REF_FRAME":"TEME","INCLINATION":"53.0551","COUNTRY_CODE":"US","REV_AT_EPOCH":"5035","MEAN_ANOMALY":"268.1905","ELEMENT_SET_NO":"999","APOAPSIS":"548.826","RCS_SIZE":"LARGE","CENTER_NAME":"EARTH","TIME_SYSTEM":"UTC","TLE_LINE1":"1 47387U 21005AQ  21350.89952575  .00000862  00000-0  76788-4 0  9994","FILE":"3242223","EPHEMERIS_TYPE":"0","LAUNCH_DATE":"2021-01-20","PERIOD":"95.592","ARG_OF_PERICENTER":"91.9352","EPOCH":"2021-12-16T21:35:19.024800","PERIAPSIS":"545.591","ECCENTRICITY":"0.00023360","GP_ID":"191861884"},{"INCLINATION":"53.0551","COUNTRY_CODE":"US","CLASSIFICATION_TYPE":"U","OBJECT_ID":"2021-005AR","REF_FRAME":"TEME","TLE_LINE2":"2 47388  53.0551 152.2002 0001710  87.3001 272.8184 15.06394763 50349","ELEMENT_SET_NO":"999","REV_AT_EPOCH":"5034","MEAN_ANOMALY":"272.8184","MEAN_MOTION_DDOT":"0.0000000000000","MEAN_MOTION":"15.06394763","SITE":"AFETR","DECAY_DATE":null,"BSTAR":"0.00005965900000","OBJECT_NAME":"STARLINK-2109","SEMIMAJOR_AXIS":"6925.365","RA_OF_ASC_NODE":"152.2002","OBJECT_TYPE":"PAYLOAD","NORAD_CAT_ID":"47388","MEAN_ELEMENT_THEORY":"SGP4","MEAN_MOTION_DOT":"0.00000607","ARG_OF_PERICENTER":"87.3001","EPOCH":"2021-12-16T20:20:58.346592","PERIAPSIS":"546.045","ECCENTRICITY":"0.00017100","GP_ID":"191860632","TIME_SYSTEM":"UTC","RCS_SIZE":"LARGE","APOAPSIS":"548.414","CENTER_NAME":"EARTH","FILE":"3242223","TLE_LINE1":"1 47388U 21005AR  21350.84789753  .00000607  00000-0  59659-4 0  9991","EPHEMERIS_TYPE":"0","LAUNCH_DATE":"2021-01-20","PERIOD":"95.592"},{"OBJECT_TYPE":"PAYLOAD","NORAD_CAT_ID":"47389","MEAN_ELEMENT_THEORY":"SGP4","MEAN_MOTION_DOT":"0.00001469","SEMIMAJOR_AXIS":"6925.358","RA_OF_ASC_NODE":"132.2731","BSTAR":"0.00011753000000","OBJECT_NAME":"STARLINK-2110","MEAN_MOTION_DDOT":"0.0000000000000","SITE":"AFETR","MEAN_MOTION":"15.06397054","DECAY_DATE":null,"REV_AT_EPOCH":"5062","MEAN_ANOMALY":"259.2639","ELEMENT_SET_NO":"999","OBJECT_ID":"2021-005AS","CLASSIFICATION_TYPE":"U","TLE_LINE2":"2 47389  53.0565 132.2731 0001841 100.8557 259.2639 15.06397054 50625","REF_FRAME":"TEME","INCLINATION":"53.0565","COUNTRY_CODE":"US","EPHEMERIS_TYPE":"0","TLE_LINE1":"1 47389U 21005AS  21350.82764061  .00001469  00000-0  11753-3 0  9994","FILE":"3242223","LAUNCH_DATE":"2021-01-20","PERIOD":"95.592","RCS_SIZE":"LARGE","APOAPSIS":"548.498","CENTER_NAME":"EARTH","TIME_SYSTEM":"UTC","ECCENTRICITY":"0.00018410","GP_ID":"191860882","EPOCH":"2021-12-16T19:51:48.148704","ARG_OF_PERICENTER":"100.8557","PERIAPSIS":"545.948"},{"GP_ID":"191861634","ECCENTRICITY":"0.00014920","PERIAPSIS":"546.180","EPOCH":"2021-12-16T18:08:16.759392","ARG_OF_PERICENTER":"89.6326","PERIOD":"95.592","LAUNCH_DATE":"2021-01-20","TLE_LINE1":"1 47390U 21005AT  21350.75574953 -.00001145  00000-0 -57996-4 0  9990","FILE":"3242223","EPHEMERIS_TYPE":"0","CENTER_NAME":"EARTH","RCS_SIZE":"LARGE","APOAPSIS":"548.247","TIME_SYSTEM":"UTC","MEAN_ANOMALY":"270.4834","REV_AT_EPOCH":"5033","ELEMENT_SET_NO":"999","TLE_LINE2":"2 47390  53.0549 152.5992 0001492  89.6326 270.4834 15.06400086 50333","REF_FRAME":"TEME","OBJECT_ID":"2021-005AT","CLASSIFICATION_TYPE":"U","COUNTRY_CODE":"US","INCLINATION":"53.0549","MEAN_ELEMENT_THEORY":"SGP4","MEAN_MOTION_DOT":"-0.00001145","NORAD_CAT_ID":"47390","OBJECT_TYPE":"PAYLOAD","RA_OF_ASC_NODE":"152.5992","SEMIMAJOR_AXIS":"6925.348","OBJECT_NAME":"STARLINK-2111","BSTAR":"-0.00005799600000","DECAY_DATE":null,"MEAN_MOTION":"15.06400086","SITE":"AFETR","MEAN_MOTION_DDOT":"0.0000000000000"},{"TIME_SYSTEM":"UTC","APOAPSIS":"548.449","RCS_SIZE":"LARGE","CENTER_NAME":"EARTH","TLE_LINE1":"1 47391U 21005AU  21350.89763585  .00001350  00000-0  10954-3 0  9995","EPHEMERIS_TYPE":"0","FILE":"3242107","LAUNCH_DATE":"2021-01-20","PERIOD":"95.592","ARG_OF_PERICENTER":"95.0322","EPOCH":"2021-12-16T21:32:35.737440","PERIAPSIS":"545.957","ECCENTRICITY":"0.00017990","GP_ID":"191836153","MEAN_MOTION_DDOT":"0.0000000000000","SITE":"AFETR","MEAN_MOTION":"15.06403471","DECAY_DATE":null,"BSTAR":"0.00010954000000","OBJECT_NAME":"STARLINK-2112","SEMIMAJOR_AXIS":"6925.338","RA_OF_ASC_NODE":"121.9588","OBJECT_TYPE":"PAYLOAD","NORAD_CAT_ID":"47391","MEAN_ELEMENT_THEORY":"SGP4","MEAN_MOTION_DOT":"0.00001350","INCLINATION":"53.0542","COUNTRY_CODE":"US","OBJECT_ID":"2021-005AU","CLASSIFICATION_TYPE":"U","TLE_LINE2":"2 47391  53.0542 121.9588 0001799  95.0322 265.0873 15.06403471 51385","REF_FRAME":"TEME","ELEMENT_SET_NO":"999","REV_AT_EPOCH":"5138","MEAN_ANOMALY":"265.0873"},{"EPOCH":"2021-12-16T21:33:57.157344","ARG_OF_PERICENTER":"101.1967","PERIAPSIS":"545.913","GP_ID":"191836408","ECCENTRICITY":"0.00018310","TIME_SYSTEM":"UTC","CENTER_NAME":"EARTH","APOAPSIS":"548.450","RCS_SIZE":"LARGE","LAUNCH_DATE":"2021-01-20","FILE":"3242107","TLE_LINE1":"1 47392U 21005AV  21350.89857821  .00001544  00000-0  12248-3 0  9996","EPHEMERIS_TYPE":"0","PERIOD":"95.591","COUNTRY_CODE":"US","INCLINATION":"53.0551","CLASSIFICATION_TYPE":"U","OBJECT_ID":"2021-005AV","REF_FRAME":"TEME","TLE_LINE2":"2 47392  53.0551 121.9541 0001831 101.1967 258.9228 15.06410467 51384","ELEMENT_SET_NO":"999","MEAN_ANOMALY":"258.9228","REV_AT_EPOCH":"5138","MEAN_MOTION_DDOT":"0.0000000000000","DECAY_DATE":null,"MEAN_MOTION":"15.06410467","SITE":"AFETR","BSTAR":"0.00012248000000","OBJECT_NAME":"STARLINK-2113","RA_OF_ASC_NODE":"121.9541","SEMIMAJOR_AXIS":"6925.316","OBJECT_TYPE":"PAYLOAD","MEAN_ELEMENT_THEORY":"SGP4","MEAN_MOTION_DOT":"0.00001544","NORAD_CAT_ID":"47392"},{"REV_AT_EPOCH":"5108","MEAN_ANOMALY":"263.4235","ELEMENT_SET_NO":"999","OBJECT_ID":"2021-005AW","CLASSIFICATION_TYPE":"U","TLE_LINE2":"2 47393  53.0541  98.1925 0001162  96.6887 263.4235 15.06406843 51080","REF_FRAME":"TEME","INCLINATION":"53.0541","COUNTRY_CODE":"US","OBJECT_TYPE":"PAYLOAD","NORAD_CAT_ID":"47393","MEAN_ELEMENT_THEORY":"SGP4","MEAN_MOTION_DOT":"0.00000576","SEMIMAJOR_AXIS":"6925.328","RA_OF_ASC_NODE":"98.1925","BSTAR":"0.00005752300000","OBJECT_NAME":"STARLINK-2114","MEAN_MOTION_DDOT":"0.0000000000000","SITE":"AFETR","MEAN_MOTION":"15.06406843","DECAY_DATE":null,"GP_ID":"191860383","ECCENTRICITY":"0.00011620","EPOCH":"2021-12-16T15:00:28.134432","ARG_OF_PERICENTER":"96.6887","PERIAPSIS":"546.388","TLE_LINE1":"1 47393U 21005AW  21350.62532563  .00000576  00000-0  57523-4 0  9991","FILE":"3242223","EPHEMERIS_TYPE":"0","LAUNCH_DATE":"2021-01-20","PERIOD":"95.592","RCS_SIZE":"LARGE","APOAPSIS":"547.997","CENTER_NAME":"EARTH","TIME_SYSTEM":"UTC"},{"APOAPSIS":"547.385","RCS_SIZE":"LARGE","CENTER_NAME":"EARTH","TIME_SYSTEM":"UTC","PERIOD":"95.590","EPHEMERIS_TYPE":"0","TLE_LINE1":"1 47394U 21005AX  21350.77459759  .00002961  00000-0  21741-3 0  9995","FILE":"3242102","LAUNCH_DATE":"2021-01-20","PERIAPSIS":"546.842","ARG_OF_PERICENTER":"105.3593","EPOCH":"2021-12-16T18:35:25.231776","ECCENTRICITY":"0.00003920","GP_ID":"191836413","OBJECT_NAME":"STARLINK-2115","BSTAR":"0.00021741000000","SITE":"AFETR","MEAN_MOTION":"15.06432540","DECAY_DATE":null,"MEAN_MOTION_DDOT":"0.0000000000000","NORAD_CAT_ID":"47394","MEAN_ELEMENT_THEORY":"SGP4","MEAN_MOTION_DOT":"0.00002961","OBJECT_TYPE":"PAYLOAD","SEMIMAJOR_AXIS":"6925.249","RA_OF_ASC_NODE":"117.5267","REF_FRAME":"TEME","TLE_LINE2":"2 47394  53.0552 117.5267 0000392 105.3593 254.7440 15.06432540 51448","OBJECT_ID":"2021-005AX","CLASSIFICATION_TYPE":"U","INCLINATION":"53.0552","COUNTRY_CODE":"US","REV_AT_EPOCH":"5144","MEAN_ANOMALY":"254.7440","ELEMENT_SET_NO":"999"},{"CENTER_NAME":"EARTH","RCS_SIZE":"LARGE","APOAPSIS":"548.418","TIME_SYSTEM":"UTC","LAUNCH_DATE":"2021-01-20","TLE_LINE1":"1 47395U 21005AY  21350.81102989 -.00000375  00000-0 -63001-5 0  9997","EPHEMERIS_TYPE":"0","FILE":"3242223","PERIOD":"95.592","EPOCH":"2021-12-16T19:27:52.982496","ARG_OF_PERICENTER":"98.3344","PERIAPSIS":"546.030","ECCENTRICITY":"0.00017240","GP_ID":"191861885","BSTAR":"-0.00000630010000","OBJECT_NAME":"STARLINK-2117","MEAN_MOTION_DDOT":"0.0000000000000","DECAY_DATE":null,"MEAN_MOTION":"15.06396459","SITE":"AFETR","OBJECT_TYPE":"PAYLOAD","MEAN_ELEMENT_THEORY":"SGP4","MEAN_MOTION_DOT":"-0.00000375","NORAD_CAT_ID":"47395","RA_OF_ASC_NODE":"112.3565","SEMIMAJOR_AXIS":"6925.359","CLASSIFICATION_TYPE":"U","OBJECT_ID":"2021-005AY","TLE_LINE2":"2 47395  53.0558 112.3565 0001724  98.3344 261.7841 15.06396459 50905","REF_FRAME":"TEME","COUNTRY_CODE":"US","INCLINATION":"53.0558","MEAN_ANOMALY":"261.7841","REV_AT_EPOCH":"5090","ELEMENT_SET_NO":"999"}];
